     2.12           N: GNSS NAV DATA    E: GALILEO          RINEX VERSION / TYPE
GS10 V12.10                             08-DEC-23 17:28     PGM / RUN BY / DATE
GAL    1.4125D+02 -5.0000D-01 -5.4016D-03  0.0000D+00       IONOSPHERIC CORR
GAUT -9.3132257462D-10 8.881784197D-16 432000 2291          TIME SYSTEM CORR
GPGA -1.8917489797D-09 0.000000000D+00 518400 2291          TIME SYSTEM CORR
    18    18  1929     7                                    LEAP SECONDS
                                                            END OF HEADER
E25 2023 12 08 23 40 00-2.247747033834D-06 5.826450433233D-13 0.000000000000D+00
     9.400000000000D+01 1.395937500000D+02 2.881548599494D-09 2.433126807966D+00
     6.619840860367D-06 2.315482124686D-04 9.099021553993D-06 5.440629556656D+03
     5.172000000000D+05-4.656612873077D-08 3.060720132742D+00-1.490116119385D-08
     9.679925438606D-01 1.479687500000D+02-2.943185664754D-01-5.470942172416D-09
     1.878649681871D-10 2.580000000000D+02 2.291000000000D+03 0.000000000000D+00
     3.120000000000D+00 0.000000000000D+00 3.259629011154D-09 0.000000000000D+00
     5.179000000000D+05
E04 2023 12 08 23 40 00-2.756893518381D-04-8.711253940419D-12 0.000000000000D+00
     9.400000000000D+01-3.281250000000D+00 3.548362089238D-09 2.669668697640D+00
    -1.173466444016D-07 7.512816227973D-05 4.606321454048D-06 5.440610433578D+03
     5.172000000000D+05 2.048909664154D-08 9.618397313198D-01-9.313225746155D-09
     9.597136841786D-01 2.398125000000D+02 3.124227286413D+00-5.817742332320D-09
     1.421487782100D-10 5.170000000000D+02 2.291000000000D+03 0.000000000000D+00
     3.120000000000D+00 0.000000000000D+00-2.793967723846D-09-3.259629011154D-09
     5.181250000000D+05
E04 2023 12 08 23 40 00-2.756885951385D-04-8.711253940419D-12 0.000000000000D+00
     9.400000000000D+01-3.281250000000D+00 3.548362089238D-09 2.669668697640D+00
    -1.173466444016D-07 7.512816227973D-05 4.606321454048D-06 5.440610433578D+03
     5.172000000000D+05 2.048909664154D-08 9.618397313198D-01-9.313225746155D-09
     9.597136841786D-01 2.398125000000D+02 3.124227286413D+00-5.817742332320D-09
     1.421487782100D-10 2.580000000000D+02 2.291000000000D+03 0.000000000000D+00
     3.120000000000D+00 0.000000000000D+00-2.793967723846D-09 0.000000000000D+00
     5.181500000000D+05
